[
  {
    "COMMENT": "GENERATED VIA SPACETRACK.ORG API",
    "ORIGINATOR": "18 SPCS",
    "NORAD_CAT_ID": "25260",
    "OBJECT_NAME": "SPOT 4",
    "OBJECT_TYPE": "PAYLOAD",
    "CLASSIFICATION_TYPE": "U",
    "INTLDES": "98017A",
    "EPOCH": "2023-04-21 11:49:26",
    "EPOCH_MICROSECONDS": "658624",
    "MEAN_MOTION": "14.54135845",
    "ECCENTRICITY": "0.0013062",
    "INCLINATION": "98.2606",
    "RA_OF_ASC_NODE": "205.1917",
    "ARG_OF_PERICENTER": "178.4059",
    "MEAN_ANOMALY": "181.7181",
    "EPHEMERIS_TYPE": "0",
    "ELEMENT_SET_NO": "999",
    "REV_AT_EPOCH": "31191",
    "BSTAR": "0.00019032",
    "MEAN_MOTION_DOT": "0.0000076",
    "MEAN_MOTION_DDOT": "0",
    "FILE": "3891470",
    "TLE_LINE0": "0 SPOT 4",
    "TLE_LINE1": "1 25260U 98017A   23111.49266966  .00000760  00000-0  19032-3 0  9997",
    "TLE_LINE2": "2 25260  98.2606 205.1917 0013062 178.4059 181.7181 14.54135845311911",
    "OBJECT_ID": "1998-017A",
    "OBJECT_NUMBER": "25260",
    "SEMIMAJOR_AXIS": "7090.309",
    "PERIOD": "99.028",
    "APOGEE": "721.436",
    "PERIGEE": "702.913",
    "DECAYED": "0"
  },
  {
    "COMMENT": "GENERATED VIA SPACETRACK.ORG API",
    "ORIGINATOR": "18 SPCS",
    "NORAD_CAT_ID": "25260",
    "OBJECT_NAME": "SPOT 4",
    "OBJECT_TYPE": "PAYLOAD",
    "CLASSIFICATION_TYPE": "U",
    "INTLDES": "98017A",
    "EPOCH": "2023-04-21 11:49:26",
    "EPOCH_MICROSECONDS": "658624",
    "MEAN_MOTION": "14.54135845",
    "ECCENTRICITY": "0.0013062",
    "INCLINATION": "98.2606",
    "RA_OF_ASC_NODE": "205.1917",
    "ARG_OF_PERICENTER": "178.4059",
    "MEAN_ANOMALY": "181.7181",
    "EPHEMERIS_TYPE": "0",
    "ELEMENT_SET_NO": "999",
    "REV_AT_EPOCH": "31167",
    "BSTAR": "0.00019032",
    "MEAN_MOTION_DOT": "0.0000076",
    "MEAN_MOTION_DDOT": "0",
    "FILE": "3891529",
    "TLE_LINE0": "0 SPOT 4",
    "TLE_LINE1": "1 25260U 98017A   23111.49266966  .00000760  00000-0  19032-3 0  9997",
    "TLE_LINE2": "2 25260  98.2606 205.1917 0013062 178.4059 181.7181 14.54135845311674",
    "OBJECT_ID": "1998-017A",
    "OBJECT_NUMBER": "25260",
    "SEMIMAJOR_AXIS": "7090.309",
    "PERIOD": "99.028",
    "APOGEE": "721.436",
    "PERIGEE": "702.913",
    "DECAYED": "0"
  },
  {
    "COMMENT": "GENERATED VIA SPACETRACK.ORG API",
    "ORIGINATOR": "18 SPCS",
    "NORAD_CAT_ID": "25260",
    "OBJECT_NAME": "SPOT 4",
    "OBJECT_TYPE": "PAYLOAD",
    "CLASSIFICATION_TYPE": "U",
    "INTLDES": "98017A",
    "EPOCH": "2023-04-21 23:23:02",
    "EPOCH_MICROSECONDS": "913792",
    "MEAN_MOTION": "14.5413687",
    "ECCENTRICITY": "0.0013085",
    "INCLINATION": "98.2606",
    "RA_OF_ASC_NODE": "205.6672",
    "ARG_OF_PERICENTER": "176.9743",
    "MEAN_ANOMALY": "183.1535",
    "EPHEMERIS_TYPE": "0",
    "ELEMENT_SET_NO": "999",
    "REV_AT_EPOCH": "31198",
    "BSTAR": "0.0001957",
    "MEAN_MOTION_DOT": "0.00000783",
    "MEAN_MOTION_DDOT": "0",
    "FILE": "3891846",
    "TLE_LINE0": "0 SPOT 4",
    "TLE_LINE1": "1 25260U 98017A   23111.97433928  .00000783  00000-0  19570-3 0  9996",
    "TLE_LINE2": "2 25260  98.2606 205.6672 0013085 176.9743 183.1535 14.54136870311987",
    "OBJECT_ID": "1998-017A",
    "OBJECT_NUMBER": "25260",
    "SEMIMAJOR_AXIS": "7090.306",
    "PERIOD": "99.028",
    "APOGEE": "721.449",
    "PERIGEE": "702.893",
    "DECAYED": "0"
  },
  {
    "COMMENT": "GENERATED VIA SPACETRACK.ORG API",
    "ORIGINATOR": "18 SPCS",
    "NORAD_CAT_ID": "25260",
    "OBJECT_NAME": "SPOT 4",
    "OBJECT_TYPE": "PAYLOAD",
    "CLASSIFICATION_TYPE": "U",
    "INTLDES": "98017A",
    "EPOCH": "2023-04-21 23:23:02",
    "EPOCH_MICROSECONDS": "913792",
    "MEAN_MOTION": "14.5413687",
    "ECCENTRICITY": "0.0013085",
    "INCLINATION": "98.2606",
    "RA_OF_ASC_NODE": "205.6672",
    "ARG_OF_PERICENTER": "176.9743",
    "MEAN_ANOMALY": "183.1535",
    "EPHEMERIS_TYPE": "0",
    "ELEMENT_SET_NO": "999",
    "REV_AT_EPOCH": "31174",
    "BSTAR": "0.0001957",
    "MEAN_MOTION_DOT": "0.00000783",
    "MEAN_MOTION_DDOT": "0",
    "FILE": "3892071",
    "TLE_LINE0": "0 SPOT 4",
    "TLE_LINE1": "1 25260U 98017A   23111.97433928  .00000783  00000-0  19570-3 0  9996",
    "TLE_LINE2": "2 25260  98.2606 205.6672 0013085 176.9743 183.1535 14.54136870311741",
    "OBJECT_ID": "1998-017A",
    "OBJECT_NUMBER": "25260",
    "SEMIMAJOR_AXIS": "7090.306",
    "PERIOD": "99.028",
    "APOGEE": "721.449",
    "PERIGEE": "702.893",
    "DECAYED": "0"
  },
  {
    "COMMENT": "GENERATED VIA SPACETRACK.ORG API",
    "ORIGINATOR": "18 SPCS",
    "NORAD_CAT_ID": "25260",
    "OBJECT_NAME": "SPOT 4",
    "OBJECT_TYPE": "PAYLOAD",
    "CLASSIFICATION_TYPE": "U",
    "INTLDES": "98017A",
    "EPOCH": "2023-04-22 05:59:23",
    "EPOCH_MICROSECONDS": "634240",
    "MEAN_MOTION": "14.54137181",
    "ECCENTRICITY": "0.0013102",
    "INCLINATION": "98.2606",
    "RA_OF_ASC_NODE": "205.9389",
    "ARG_OF_PERICENTER": "176.1746",
    "MEAN_ANOMALY": "183.9553",
    "EPHEMERIS_TYPE": "0",
    "ELEMENT_SET_NO": "999",
    "REV_AT_EPOCH": "31178",
    "BSTAR": "0.0001883",
    "MEAN_MOTION_DOT": "0.00000752",
    "MEAN_MOTION_DDOT": "0",
    "FILE": "3892285",
    "TLE_LINE0": "0 SPOT 4",
    "TLE_LINE1": "1 25260U 98017A   23112.24957910  .00000752  00000-0  18830-3 0  9993",
    "TLE_LINE2": "2 25260  98.2606 205.9389 0013102 176.1746 183.9553 14.54137181311782",
    "OBJECT_ID": "1998-017A",
    "OBJECT_NUMBER": "25260",
    "SEMIMAJOR_AXIS": "7090.305",
    "PERIOD": "99.028",
    "APOGEE": "721.460",
    "PERIGEE": "702.880",
    "DECAYED": "0"
  },
  {
    "COMMENT": "GENERATED VIA SPACETRACK.ORG API",
    "ORIGINATOR": "18 SPCS",
    "NORAD_CAT_ID": "25260",
    "OBJECT_NAME": "SPOT 4",
    "OBJECT_TYPE": "PAYLOAD",
    "CLASSIFICATION_TYPE": "U",
    "INTLDES": "98017A",
    "EPOCH": "2023-04-23 05:06:36",
    "EPOCH_MICROSECONDS": "89280",
    "MEAN_MOTION": "14.541388",
    "ECCENTRICITY": "0.0013169",
    "INCLINATION": "98.2606",
    "RA_OF_ASC_NODE": "206.8898",
    "ARG_OF_PERICENTER": "173.2193",
    "MEAN_ANOMALY": "186.9184",
    "EPHEMERIS_TYPE": "0",
    "ELEMENT_SET_NO": "999",
    "REV_AT_EPOCH": "31216",
    "BSTAR": "0.00018754",
    "MEAN_MOTION_DOT": "0.00000748",
    "MEAN_MOTION_DDOT": "0",
    "FILE": "3892453",
    "TLE_LINE0": "0 SPOT 4",
    "TLE_LINE1": "1 25260U 98017A   23113.21291770  .00000748  00000-0  18754-3 0  9996",
    "TLE_LINE2": "2 25260  98.2606 206.8898 0013169 173.2193 186.9184 14.54138800312169",
    "OBJECT_ID": "1998-017A",
    "OBJECT_NUMBER": "25260",
    "SEMIMAJOR_AXIS": "7090.300",
    "PERIOD": "99.028",
    "APOGEE": "721.502",
    "PERIGEE": "702.828",
    "DECAYED": "0"
  },
  {
    "COMMENT": "GENERATED VIA SPACETRACK.ORG API",
    "ORIGINATOR": "18 SPCS",
    "NORAD_CAT_ID": "25260",
    "OBJECT_NAME": "SPOT 4",
    "OBJECT_TYPE": "PAYLOAD",
    "CLASSIFICATION_TYPE": "U",
    "INTLDES": "98017A",
    "EPOCH": "2023-04-23 05:06:36",
    "EPOCH_MICROSECONDS": "89280",
    "MEAN_MOTION": "14.541388",
    "ECCENTRICITY": "0.0013169",
    "INCLINATION": "98.2606",
    "RA_OF_ASC_NODE": "206.8898",
    "ARG_OF_PERICENTER": "173.2193",
    "MEAN_ANOMALY": "186.9184",
    "EPHEMERIS_TYPE": "0",
    "ELEMENT_SET_NO": "999",
    "REV_AT_EPOCH": "31192",
    "BSTAR": "0.00018754",
    "MEAN_MOTION_DOT": "0.00000748",
    "MEAN_MOTION_DDOT": "0",
    "FILE": "3892688",
    "TLE_LINE0": "0 SPOT 4",
    "TLE_LINE1": "1 25260U 98017A   23113.21291770  .00000748  00000-0  18754-3 0  9996",
    "TLE_LINE2": "2 25260  98.2606 206.8898 0013169 173.2193 186.9184 14.54138800311922",
    "OBJECT_ID": "1998-017A",
    "OBJECT_NUMBER": "25260",
    "SEMIMAJOR_AXIS": "7090.300",
    "PERIOD": "99.028",
    "APOGEE": "721.502",
    "PERIGEE": "702.828",
    "DECAYED": "0"
  },
  {
    "COMMENT": "GENERATED VIA SPACETRACK.ORG API",
    "ORIGINATOR": "18 SPCS",
    "NORAD_CAT_ID": "25260",
    "OBJECT_NAME": "SPOT 4",
    "OBJECT_TYPE": "PAYLOAD",
    "CLASSIFICATION_TYPE": "U",
    "INTLDES": "98017A",
    "EPOCH": "2023-04-23 06:45:41",
    "EPOCH_MICROSECONDS": "250816",
    "MEAN_MOTION": "14.54139132",
    "ECCENTRICITY": "0.0013169",
    "INCLINATION": "98.2606",
    "RA_OF_ASC_NODE": "206.9577",
    "ARG_OF_PERICENTER": "173.0356",
    "MEAN_ANOMALY": "187.1026",
    "EPHEMERIS_TYPE": "0",
    "ELEMENT_SET_NO": "999",
    "REV_AT_EPOCH": "31193",
    "BSTAR": "0.00019527",
    "MEAN_MOTION_DOT": "0.00000781",
    "MEAN_MOTION_DDOT": "0",
    "FILE": "3892831",
    "TLE_LINE0": "0 SPOT 4",
    "TLE_LINE1": "1 25260U 98017A   23113.28172744  .00000781  00000-0  19527-3 0  9998",
    "TLE_LINE2": "2 25260  98.2606 206.9577 0013169 173.0356 187.1026 14.54139132311934",
    "OBJECT_ID": "1998-017A",
    "OBJECT_NUMBER": "25260",
    "SEMIMAJOR_AXIS": "7090.299",
    "PERIOD": "99.028",
    "APOGEE": "721.501",
    "PERIGEE": "702.827",
    "DECAYED": "0"
  },
  {
    "COMMENT": "GENERATED VIA SPACETRACK.ORG API",
    "ORIGINATOR": "18 SPCS",
    "NORAD_CAT_ID": "25260",
    "OBJECT_NAME": "SPOT 4",
    "OBJECT_TYPE": "PAYLOAD",
    "CLASSIFICATION_TYPE": "U",
    "INTLDES": "98017A",
    "EPOCH": "2023-04-24 04:13:48",
    "EPOCH_MICROSECONDS": "68256",
    "MEAN_MOTION": "14.54147171",
    "ECCENTRICITY": "0.001321",
    "INCLINATION": "98.2607",
    "RA_OF_ASC_NODE": "207.8407",
    "ARG_OF_PERICENTER": "170.341",
    "MEAN_ANOMALY": "189.8044",
    "EPHEMERIS_TYPE": "0",
    "ELEMENT_SET_NO": "999",
    "REV_AT_EPOCH": "31230",
    "BSTAR": "0.00042616",
    "MEAN_MOTION_DOT": "0.00001759",
    "MEAN_MOTION_DDOT": "0",
    "FILE": "3893026",
    "TLE_LINE0": "0 SPOT 4",
    "TLE_LINE1": "1 25260U 98017A   23114.17625079  .00001759  00000-0  42616-3 0  9992",
    "TLE_LINE2": "2 25260  98.2607 207.8407 0013210 170.3410 189.8044 14.54147171312308",
    "OBJECT_ID": "1998-017A",
    "OBJECT_NUMBER": "25260",
    "SEMIMAJOR_AXIS": "7090.273",
    "PERIOD": "99.027",
    "APOGEE": "721.504",
    "PERIGEE": "702.771",
    "DECAYED": "0"
  }
]